M2 PATHFINDER           
1 45727U 20037E   20196.78299995  .00000132  00000-0  18864-4 0  9990
2 45727  97.7025  16.2817 0012344 202.9253 157.1431 14.91203380  2093
